{"fetched_at":"2026-03-29T16:36:15Z","count":15609,"tles":[{"name":"STARLINK-36870","line1":"1 67897U 26035U   26087.78430487  .00134085  00000+0  88564-3 0  9991","line2":"2 67897  97.2868  21.1872 0001232  61.1739 298.9650 15.75194087  6850","category":"Starlink"}]}