{
  "norad_id": 67897,
  "name": "STARLINK-36870",
  "history": [
    {
      "epoch": "2026-03-28T18:49:23.940768",
      "apogee_km": 344.90711801944053,
      "perigee_km": 343.2507640115746,
      "latitude_deg": -72.20516173557029,
      "longitude_deg": -35.006732480134815,
      "semi_major_axis_km": 6722.215941015507,
      "eccentricity": 0.0001232,
      "inclination_deg": 97.2868,
      "raan_deg": 21.1872,
      "arg_perigee_deg": 61.1739,
      "mean_anomaly_deg": 298.965,
      "mean_motion_rev_day": 15.75194087
    }
  ]
}